O3B FM5                 
1 39188U 13031A   26062.09815228 -.00000028  00000+0  00000+0 0  9997
2 39188   0.0974  14.4079 0003340 318.8297  26.7381  5.00116441231728
O3B FM4                 
1 39189U 13031B   26062.01741021 -.00000029  00000+0  00000+0 0  9990
2 39189   0.0555 345.1625 0005039   4.8131  10.0072  5.00115225231734
O3B FM2                 
1 39190U 13031C   26061.68331661 -.00000029  00000+0  00000+0 0  9999
2 39190   0.0567 339.0902 0002843 359.6148  21.2758  5.00115954231787
O3B PFM                 
1 39191U 13031D   26061.69742789 -.00000029  00000+0  00000+0 0  9998
2 39191   0.0664   7.7761 0005130 348.6347   3.5783  5.00116023231340
O3B FM3                 
1 40079U 14038A   26061.96394142 -.00000029  00000+0  00000+0 0  9999
2 40079   0.0530 353.4674 0000432  43.3172 323.2111  5.00115535207738
O3B FM7                 
1 40080U 14038B   26061.31035470 -.00000029  00000+0  00000+0 0  9996
2 40080   0.0588 348.9474 0004488 339.4059  31.6123  5.00115622212532
O3B FM6                 
1 40081U 14038C   26059.33845883 -.00000028  00000+0  00000+0 0  9992
2 40081   0.0550 351.2998 0002672 345.9055  22.7755  5.00115665212383
O3B FM8                 
1 40082U 14038D   26061.79046471 -.00000029  00000+0  00000+0 0  9993
2 40082   0.0559 350.7420 0002658 353.1323  16.1099  5.00115957212629
O3B FM10                
1 40348U 14083A   26061.81751909 -.00000029  00000+0  00000+0 0  9990
2 40348   0.0434 347.1620 0002687 352.9786  19.8417  5.00115190204578
O3B FM11                
1 40349U 14083B   26061.83024282 -.00000029  00000+0  00000+0 0  9990
2 40349   0.0565   0.5416 0003138 330.0630  29.3705  5.00115568204591
O3B FM12                
1 40350U 14083C   26061.85733976 -.00000029  00000+0  00000+0 0  9991
2 40350   0.0560 359.7962 0002644 337.2000  22.9847  5.00115929204603
O3B FM9                 
1 40351U 14083D   26062.08405927 -.00000028  00000+0  00000+0 0  9999
2 40351   0.0577   0.8097 0002737 339.7312  19.4415  5.00115869204763
LEO 1 (LEO VANTAGE 1)   
1 43113U 18004C   26062.09122203  .00004956  00000+0  34451-3 0  9993
2 43113  99.2488 326.5545 0353452  45.0934 317.8382 14.67106298421925
O3B FM15                
1 43231U 18024A   26061.15137011 -.00000029  00000+0  00000+0 0  9992
2 43231   0.0483   0.6162 0002685 337.4441  21.9208  5.00115540145678
O3B FM16                
1 43232U 18024B   26059.80451050 -.00000028  00000+0  00000+0 0  9993
2 43232   0.0446   2.3185 0002785 333.1821  24.4786  5.00115846145520
O3B FM14                
1 43233U 18024C   26062.04405897 -.00000028  00000+0  00000+0 0  9992
2 43233   0.0433   1.3587 0002847 340.9776  17.6466  5.00115627145634
O3B FM13                
1 43234U 18024D   26062.10991137 -.00000028  00000+0  00000+0 0  9997
2 43234   0.0485 331.6373 0004295 331.6147  56.6997  5.00115687145742
